[{"OBJECT_NAME":"FORMOSAT 7-1","OBJECT_ID":"2019-036L","EPOCH":"2026-03-09T01:58:31.546848","MEAN_MOTION":14.96019979,"ECCENTRICITY":0.00010479,"INCLINATION":23.9993,"RA_OF_ASC_NODE":347.0403,"ARG_OF_PERICENTER":84.2943,"MEAN_ANOMALY":275.7677,"EPHEMERIS_TYPE":0,"CLASSIFICATION_TYPE":"U","NORAD_CAT_ID":44349,"ELEMENT_SET_NO":999,"REV_AT_EPOCH":36964,"BSTAR":0.00036541512,"MEAN_MOTION_DOT":4.503e-5,"MEAN_MOTION_DDOT":0},{"OBJECT_NAME":"STARLINK-5318","OBJECT_ID":"2023-010AM","EPOCH":"2026-03-09T22:55:02.600544","MEAN_MOTION":14.98346991,"ECCENTRICITY":0.00032838,"INCLINATION":70.0003,"RA_OF_ASC_NODE":23.5945,"ARG_OF_PERICENTER":269.8182,"MEAN_ANOMALY":90.26,"EPHEMERIS_TYPE":0,"CLASSIFICATION_TYPE":"U","NORAD_CAT_ID":55304,"ELEMENT_SET_NO":999,"REV_AT_EPOCH":17331,"BSTAR":0.00029373433,"MEAN_MOTION_DOT":3.415e-5,"MEAN_MOTION_DDOT":0}]
